#cP2014  3  9  0  0  0.00000000      96 ORBIT IGb08 HLM  IGS
## 1783      0.00000000   900.00000000 56725 0.0000000000000
+   31   G01G02G03G04G05G07G08G09G10G11G12G13G14G15G16G17G18
+        G19G20G21G22G23G24G25G26G27G28G29G30G31G32  0  0  0
+          0  0  0  0  0  0  0  0  0  0  0  0  0  0  0  0  0
+          0  0  0  0  0  0  0  0  0  0  0  0  0  0  0  0  0
+          0  0  0  0  0  0  0  0  0  0  0  0  0  0  0  0  0
++         2  2  2  2  2  2  2  2  2  2  2  2  2  2  3  2  2
++         2  2  2  2  2  2  2  2  2  2  2  0  2  2  0  0  0
++         0  0  0  0  0  0  0  0  0  0  0  0  0  0  0  0  0
++         0  0  0  0  0  0  0  0  0  0  0  0  0  0  0  0  0
++         0  0  0  0  0  0  0  0  0  0  0  0  0  0  0  0  0
%c G  cc GPS ccc cccc cccc cccc cccc ccccc ccccc ccccc ccccc
%c cc cc ccc ccc cccc cccc cccc cccc ccccc ccccc ccccc ccccc
%f  1.2500000  1.025000000  0.00000000000  0.000000000000000
%f  0.0000000  0.000000000  0.00000000000  0.000000000000000
%i    0    0    0    0      0      0      0      0         0
%i    0    0    0    0      0      0      0      0         0
/* FINAL ORBIT COMBINATION FROM WEIGHTED AVERAGE OF:        
/* cod emr esa gfz grg jpl mit ngs sio                      
/* REFERENCED TO IGS TIME (IGST) AND TO WEIGHTED MEAN POLE: 
/* PCV:IGS08_1781 OL/AL:FES2004  NONE     Y  ORB:CMB CLK:CMB
*  2014  3  9 17 15  0.00000000
PG01 -13818.026767   8101.433464  21135.271746      3.188670  7  7  6 114       
PG02  14208.330351  16072.289855 -15696.795257    482.938684  5  6  9 111       
PG03 -25535.743728  -7523.439866  -1780.666333    335.911267  5  6  6  54       
PG04   6731.754886  25266.289636  -4162.638408      5.993677  6  6  9 114       
PG05  18128.675072   3354.515136 -19213.911464   -385.145142  6  5  5 125       
PG07  -6893.633535  21500.772500 -13651.348914    322.149962  8  7  6  93       
PG08  -1546.716400  25988.427755  -3010.180173     12.224524  6  8  4  79       
PG09   1404.890063  26297.575103  -3176.959433    311.113771  6  4  5 106       
PG10   1241.296710  17450.066615 -20205.826043   -117.452072  4  5  4  78       
PG11 -17474.483044    222.630038  19562.505641   -470.671802  5  3  4 110       
PG12  23090.943376 -10236.373492   7778.996485    191.105514  5  8  7 104       
PG13 -12123.064874   9984.231462 -21578.799853     21.930657  6  8  5 123       
PG14  -5988.344660 -17648.867348  19192.048297    191.932290  6  8  4 129       
PG15  25160.507725   2579.536477   8521.201513   -167.287656  6  8  2 114       
PG16 -17621.767337  -3637.740876 -19697.518413   -228.461452  9  9  8 109       
PG17   8072.810423  17681.047507  18457.828788    -74.897983  4  8  6 114       
PG18  14138.676793 -20318.461054   9594.700524    306.302299  5 10  5 108       
PG19 -24646.350299  -6550.137441   8067.113521   -443.685981  3  7  7 117       
PG20 -22119.178843  13104.101767   6321.769990    168.483784  4  7  7  83       
PG21   5103.584015 -22989.215564 -11187.226630   -348.371358  8  9  4 107       
PG22   2830.942961 -19471.544626  17972.799482    218.350770  7  8  4 124       
PG23 -21773.936838   2565.514690 -15174.696199     -2.445257  4  6  5 112       
PG24  15118.996599  -2203.491247  21710.140217    -24.656076  4  8  6  99       
PG25  18895.160854 -18157.545285  -3932.190352     17.834532  4  6  4 107       
PG26  22842.362622  13780.158027  -2294.402917    143.589053  6  7  2 122       
PG27 -22976.836013 -12620.257752  -4419.511864    -20.202930  8  8  4  84       
PG28  -7262.593644  19026.290598  17580.035260    338.302513  3  8  5  94       
PG29  13980.356557  -9098.880136 -20614.759277    516.788895  7  9  4 123       
PG30  -9729.712833  19644.042476 -15474.837272 999999.999999
PG31  -7813.068542 -23944.986835  -7751.517103    333.711567  7 10  8 137       
PG32 -21329.192610    531.808945  15527.310453   -472.330193  4  6  5 120       
*  2014  3  9 17 30  0.00000000
PG01 -14268.436714   5687.846536  21628.154792      3.190300  6  7  5 115       
PG02  14332.883707  17791.268254 -13677.310116    482.940599  4  6  9  70       
PG03 -25177.364117  -7758.040977  -4548.917892    335.916517  5  6  6  63       
PG04   6454.479167  25606.450349  -1361.353651      5.993921  7  6  8 111       
PG05  16468.339235   4884.435960 -20335.373719   -385.143518  7  4  4 125       
PG07  -7320.853372  19840.289275 -15794.955445    322.153833  8  7  6  79       
PG08  -1766.194075  25463.500486  -5913.420806     12.225090  5  8  5  86       
PG09   1134.436674  25869.136829  -6022.485634    311.115792  5  4  5 103       
PG10   -557.874738  18718.644963 -19009.142625   -117.453297  3  5  4  83       
PG11 -18406.958247  -1888.086017  18637.919413   -470.674505  5  1  5 110       
PG12  22366.406608  -9451.453883  10438.569209    191.107735  4  8  7 111       
PG13 -14238.845274   8879.342150 -20761.519037     21.927472  6  7  5 124       
PG14  -3933.545948 -16805.990292  20440.121809    191.928872  6  8  4 132       
PG15  25857.168097   3107.950765   5892.919202   -167.289780  6  8  2 123       
PG16 -15807.282154  -5047.942197 -20861.629601   -228.459960  9  9  7 116       
PG17   6065.110351  16947.074596  19860.478358    -74.900606  4  8  6 113       
PG18  15056.186895 -20644.283350   7013.541739    306.304001  5 10  6 101       
PG19 -25256.832459  -7067.213842   5366.763235   -443.688003  3  7  7 118       
PG20 -21691.233248  12242.633698   8925.368973    168.486935  4  7  7  83       
PG21   5681.405917 -21545.403354 -13473.172436   -348.373454  8  9  4 104       
PG22   4459.058890 -20556.235933  16327.476668    218.353258  7  8  4 124       
PG23 -23216.652800   1811.338606 -13042.649966     -2.448209  4  6  6 112       
PG24  15546.575129    237.071259  21526.121376    -24.656246  4  8  6  87       
PG25  19251.452658 -18167.154805  -1058.053254     17.835871  4  6  4 118       
PG26  22450.910417  13792.863597  -5120.846300    143.578998  6  8  2 131       
PG27 -22272.909468 -12616.138693  -7172.710392    -20.203330  8  8  4  78       
PG28  -8782.167401  19994.095771  15624.768343    338.304883  3  8  5  84       
PG29  16058.122933  -8102.961228 -19484.068369    516.791578  7  9  4 127       
PG30 -10047.953591  17826.826089 -17357.847930 999999.999999
PG31  -7700.351963 -24719.441757  -4966.157272    333.711920  7 10  8 124       
PG32 -19897.153957   -727.418611  17369.965437   -472.324185  4  5  5 120       
*  2014  3  9 17 45  0.00000000
PG01 -14851.170756   3268.273890  21747.525023      3.191931  6  7  5 112       
PG02  14483.785844  19264.478503 -11424.186796    482.942655  3  7  9  88       
PG03 -24530.624189  -7961.023267  -7240.447231    335.920527  5  6  6 103       
PG04   6117.492532  25649.956529   1463.646100      5.993957  7  6  8 104       
PG05  14808.353217   6569.993381 -21109.238217   -385.141613  7  4  4 125       
PG07  -7882.340336  17981.851729 -17661.642859    322.157687  8  6  5 112       
PG08  -2051.225952  24624.210188  -8710.643348     12.226987  6  8  5  81       
PG09    773.836879  25148.914536  -8764.698593    311.118795  5  4  5  92       
PG10  -2183.991043  19974.820738 -17489.896646   -117.455233  3  4  3  91       
PG11 -19358.277761  -3849.509299  17381.627098   -470.677247  6     5 107       
PG12  21465.363673  -8435.077086  12915.831781    191.109722  4  6  6 113       
PG13 -16308.818088   7937.079264 -19592.365309     21.923531  6  6  5 125       
PG14  -1723.112289 -16032.397777  21343.997441    191.926350  5  8  4 130       
PG15  26288.517936   3522.895252   3164.802136   -167.291456  6  9  2 118       
PG16 -13988.254131  -6632.619153 -21670.627229   -228.458318  9  9  7 101       
PG17   3889.539806  16276.839478  20930.576056    -74.903513  4  8  7 109       
PG18  15745.052177 -20806.190585   4310.844123    306.306077  5 10  6  90       
PG19 -25608.877837  -7432.502362   2576.176340   -443.690320  2  7  7 123       
PG20 -21106.677714  11153.900503  11373.566858    168.489831  4  7  7  99       
PG21   6383.818790 -19884.492587 -15513.055205   -348.374983  8  9  5 107       
PG22   5891.578947 -21579.006548  14403.310331    218.355817  6  8  4 118       
PG23 -24454.119181   1210.331050 -10689.394539     -2.450972  4  7  6 116       
PG24  16089.439192   2610.794919  20971.460105    -24.656934  3  7  5 100       
PG25  19368.503965 -17970.513001   1834.430756     17.837208  5  6  5 119       
PG26  21776.214647  13704.720227  -7861.947924    143.569260  6  8  2 121       
PG27 -21278.123228 -12561.112957  -9802.785531    -20.203738  8  8  5  88       
PG28 -10069.944353  20898.999186  13409.291303    338.307507  3  8  5  79       
PG29  18047.233382  -7268.907231 -18016.467111    516.794094  7  8  4 118       
PG30 -10491.651265  15838.522975 -18951.187228 999999.999999
PG31  -7566.293729 -25180.876861  -2093.385635    333.712144  7 10  8 107       
PG32 -18380.129206  -2170.900130  18909.040050   -472.318172  4  5  5 115       
EOF
